IRIDIUM 26              
1 24903U 97043A   25193.46037840  .00000278  00000+0  86717-4 0  9992
2 24903  86.3952 100.0072 0002234  79.5864 280.5585 14.37160754460374
IRIDIUM 22              
1 24907U 97043E   25194.17761838  .00000258  00000+0  82265-4 0  9998
2 24907  86.3960 103.2682 0002124  84.3000 275.8439 14.35971734460497
DUMMY MASS 1            
1 24925U 97048A   25194.52740526  .00000324  00000+0  32960-4 0  9994
2 24925  86.3364 123.1546 0008740  62.7923 297.4191 14.87002904509286
DUMMY MASS 2            
1 24926U 97048B   25193.55167085  .00000295  00000+0  29941-4 0  9992
2 24926  86.3366 125.2173 0009766  73.6587 286.5711 14.86754196508916
IRIDIUM 29              
1 24944U 97051A   25194.53960048  .00000291  00000+0  92672-4 0  9992
2 24944  86.3983 132.8490 0002200  90.3770 269.7679 14.36484487457279
IRIDIUM 33              
1 24946U 97051C   25193.78325979  .00000227  00000+0  73010-4 0  9992
2 24946  86.3899 132.4285 0008134  11.2200 348.9176 14.34905217456411
IRIDIUM 28              
1 24948U 97051E   25193.80043829  .00000246  00000+0  75859-4 0  9992
2 24948  86.3986 130.6608 0002373  73.2992 286.8466 14.37400059457526
IRIDIUM 36              
1 24967U 97056C   25194.45582108  .00000293  00000+0  90907-4 0  9991
2 24967  86.4002 161.9703 0002064  83.2456 276.8976 14.37625686455992
